{
  "type": "FeatureCollection",
  "features": [
    {
      "type": "Feature",
      "geometry": {
        "type": "Polygon",
        "coordinates": [[
          [-55.0, -35.0], [-40.0, -35.0], [-35.0, -25.0],
          [-40.0, -15.0], [-55.0, -20.0], [-60.0, -30.0], [-55.0, -35.0]
        ]]
      },
      "properties": { "type": "confirmed", "label": "Costa leste brasileira" }
    },
    {
      "type": "Feature",
      "geometry": {
        "type": "Polygon",
        "coordinates": [[
          [-60.0, -50.0], [-40.0, -55.0], [-20.0, -50.0],
          [-15.0, -40.0], [-30.0, -35.0], [-50.0, -40.0], [-60.0, -50.0]
        ]]
      },
      "properties": { "type": "possible", "label": "Atlantico sul profundo" }
    }
  ]
}
