{
  "type": "FeatureCollection",
  "features": [
    {
      "type": "Feature",
      "geometry": {
        "type": "Polygon",
        "coordinates": [[
          [-60.0, -5.0], [-50.0, 0.0], [-45.0, -5.0],
          [-48.0, -15.0], [-55.0, -18.0], [-62.0, -12.0], [-60.0, -5.0]
        ]]
      },
      "properties": { "type": "confirmed", "label": "Bacia Amazonica" }
    },
    {
      "type": "Feature",
      "geometry": {
        "type": "Polygon",
        "coordinates": [[
          [-65.0, -15.0], [-55.0, -10.0], [-50.0, -15.0],
          [-55.0, -22.0], [-65.0, -20.0], [-70.0, -18.0], [-65.0, -15.0]
        ]]
      },
      "properties": { "type": "possible", "label": "Bacia do Parana" }
    }
  ]
}
